{
  "type": "FeatureCollection",
  "features": [
    {
      "type": "Feature",
      "properties": {
        "norad_id": 66458,
        "name": "STARLINK-35684",
        "group": "last-30-days",
        "lat": -35.0580631200935,
        "lon": -6.366800607557979,
        "alt_km": 391.511481033016,
        "timestamp": "2025-12-03T13:52:08.345434+00:00",
        "meta_object_name": "STARLINK-35684",
        "meta_object_id": "2025-262C",
        "meta_epoch": "2025-12-03T08:00:01.999872",
        "meta_mean_motion": 15.60450683,
        "meta_eccentricity": 0.00018098,
        "meta_inclination": 42.9991,
        "meta_ra_of_asc_node": 126.2271,
        "meta_arg_of_pericenter": 262.8927,
        "meta_mean_anomaly": 39.7111,
        "meta_ephemeris_type": 0,
        "meta_classification_type": "U",
        "meta_norad_cat_id": 66458,
        "meta_element_set_no": 999,
        "meta_rev_at_epoch": 412,
        "meta_bstar": -0.027827727,
        "meta_mean_motion_dot": -0.0205693,
        "meta_mean_motion_ddot": 0,
        "tle_line1": "1 66458U 25262C   25337.33335648 -.02056930  00000+0 -27828-1 0  9995",
        "tle_line2": "2 66458  42.9991 126.2271 0001809 262.8927  39.7111 15.60450683  4127"
      },
      "geometry": {
        "type": "Point",
        "coordinates": [
          -6.366800607557979,
          -35.0580631200935
        ]
      }
    },
    {
      "type": "Feature",
      "properties": {
        "norad_id": 66459,
        "name": "STARLINK-35449",
        "group": "last-30-days",
        "lat": -36.70193937562042,
        "lon": -2.105135238840766,
        "alt_km": 391.663174452804,
        "timestamp": "2025-12-03T13:52:08.345444+00:00",
        "meta_object_name": "STARLINK-35449",
        "meta_object_id": "2025-262D",
        "meta_epoch": "2025-12-03T08:00:01.999872",
        "meta_mean_motion": 15.60450022,
        "meta_eccentricity": 0.00016853,
        "meta_inclination": 42.999,
        "meta_ra_of_asc_node": 126.2174,
        "meta_arg_of_pericenter": 265.3364,
        "meta_mean_anomaly": 41.103,
        "meta_ephemeris_type": 0,
        "meta_classification_type": "U",
        "meta_norad_cat_id": 66459,
        "meta_element_set_no": 999,
        "meta_rev_at_epoch": 412,
        "meta_bstar": -0.027830445,
        "meta_mean_motion_dot": -0.02056958,
        "meta_mean_motion_ddot": 0,
        "tle_line1": "1 66459U 25262D   25337.33335648 -.02056958  00000+0 -27830-1 0  9999",
        "tle_line2": "2 66459  42.9990 126.2174 0001685 265.3364  41.1030 15.60450022  4128"
      },
      "geometry": {
        "type": "Point",
        "coordinates": [
          -2.105135238840766,
          -36.70193937562042
        ]
      }
    },
    {
      "type": "Feature",
      "properties": {
        "norad_id": 66460,
        "name": "STARLINK-35424",
        "group": "last-30-days",
        "lat": -37.46676624916813,
        "lon": 0.09682741746651731,
        "alt_km": 391.7498873010927,
        "timestamp": "2025-12-03T13:52:08.345455+00:00",
        "meta_object_name": "STARLINK-35424",
        "meta_object_id": "2025-262E",
        "meta_epoch": "2025-12-03T08:00:01.999872",
        "meta_mean_motion": 15.60448347,
        "meta_eccentricity": 0.00015471,
        "meta_inclination": 42.999,
        "meta_ra_of_asc_node": 126.2126,
        "meta_arg_of_pericenter": 262.7246,
        "meta_mean_anomaly": 45.6358,
        "meta_ephemeris_type": 0,
        "meta_classification_type": "U",
        "meta_norad_cat_id": 66460,
        "meta_element_set_no": 999,
        "meta_rev_at_epoch": 412,
        "meta_bstar": -0.027817184,
        "meta_mean_motion_dot": -0.02055877,
        "meta_mean_motion_ddot": 0,
        "tle_line1": "1 66460U 25262E   25337.33335648 -.02055877  00000+0 -27817-1 0  9995",
        "tle_line2": "2 66460  42.9990 126.2126 0001547 262.7246  45.6358 15.60448347  4123"
      },
      "geometry": {
        "type": "Point",
        "coordinates": [
          0.09682741746651731,
          -37.46676624916813
        ]
      }
    },
    {
      "type": "Feature",
      "properties": {
        "norad_id": 66461,
        "name": "STARLINK-35132",
        "group": "last-30-days",
        "lat": -38.18691317296818,
        "lon": 2.333283460084936,
        "alt_km": 391.74716800131773,
        "timestamp": "2025-12-03T13:52:08.345467+00:00",
        "meta_object_name": "STARLINK-35132",
        "meta_object_id": "2025-262F",
        "meta_epoch": "2025-12-03T08:00:01.999872",
        "meta_mean_motion": 15.60456342,
        "meta_eccentricity": 0.00015989,
        "meta_inclination": 42.9992,
        "meta_ra_of_asc_node": 126.2077,
        "meta_arg_of_pericenter": 265.2015,
        "meta_mean_anomaly": 45.0681,
        "meta_ephemeris_type": 0,
        "meta_classification_type": "U",
        "meta_norad_cat_id": 66461,
        "meta_element_set_no": 999,
        "meta_rev_at_epoch": 412,
        "meta_bstar": -0.027913693,
        "meta_mean_motion_dot": -0.0206269,
        "meta_mean_motion_ddot": 0,
        "tle_line1": "1 66461U 25262F   25337.33335648 -.02062690  00000+0 -27914-1 0  9995",
        "tle_line2": "2 66461  42.9992 126.2077 0001598 265.2015  45.0681 15.60456342  4126"
      },
      "geometry": {
        "type": "Point",
        "coordinates": [
          2.333283460084936,
          -38.18691317296818
        ]
      }
    },
    {
      "type": "Feature",
      "properties": {
        "norad_id": 66462,
        "name": "STARLINK-35499",
        "group": "last-30-days",
        "lat": -38.86576928248253,
        "lon": 4.620786672701651,
        "alt_km": 391.74520404905434,
        "timestamp": "2025-12-03T13:52:08.345477+00:00",
        "meta_object_name": "STARLINK-35499",
        "meta_object_id": "2025-262G",
        "meta_epoch": "2025-12-03T08:00:01.999872",
        "meta_mean_motion": 15.6044944,
        "meta_eccentricity": 0.00016193,
        "meta_inclination": 42.9992,
        "meta_ra_of_asc_node": 126.2022,
        "meta_arg_of_pericenter": 263.1691,
        "meta_mean_anomaly": 49.0245,
        "meta_ephemeris_type": 0,
        "meta_classification_type": "U",
        "meta_norad_cat_id": 66462,
        "meta_element_set_no": 999,
        "meta_rev_at_epoch": 412,
        "meta_bstar": -0.027836806,
        "meta_mean_motion_dot": -0.02057274,
        "meta_mean_motion_ddot": 0,
        "tle_line1": "1 66462U 25262G   25337.33335648 -.02057274  00000+0 -27837-1 0  9992",
        "tle_line2": "2 66462  42.9992 126.2022 0001619 263.1691  49.0245 15.60449440  4129"
      },
      "geometry": {
        "type": "Point",
        "coordinates": [
          4.620786672701651,
          -38.86576928248253
        ]
      }
    },
    {
      "type": "Feature",
      "properties": {
        "norad_id": 66463,
        "name": "STARLINK-35463",
        "group": "last-30-days",
        "lat": -40.081185845919215,
        "lon": 9.310004573167706,
        "alt_km": 391.64898502768483,
        "timestamp": "2025-12-03T13:52:08.345490+00:00",
        "meta_object_name": "STARLINK-35463",
        "meta_object_id": "2025-262H",
        "meta_epoch": "2025-12-03T08:00:01.999872",
        "meta_mean_motion": 15.60453864,
        "meta_eccentricity": 0.00018132,
        "meta_inclination": 42.9991,
        "meta_ra_of_asc_node": 126.1927,
        "meta_arg_of_pericenter": 264.6905,
        "meta_mean_anomaly": 51.33,
        "meta_ephemeris_type": 0,
        "meta_classification_type": "U",
        "meta_norad_cat_id": 66463,
        "meta_element_set_no": 999,
        "meta_rev_at_epoch": 412,
        "meta_bstar": -0.027865884,
        "meta_mean_motion_dot": -0.02059613,
        "meta_mean_motion_ddot": 0,
        "tle_line1": "1 66463U 25262H   25337.33335648 -.02059613  00000+0 -27866-1 0  9994",
        "tle_line2": "2 66463  42.9991 126.1927 0001813 264.6905  51.3300 15.60453864  4125"
      },
      "geometry": {
        "type": "Point",
        "coordinates": [
          9.310004573167706,
          -40.081185845919215
        ]
      }
    },
    {
      "type": "Feature",
      "properties": {
        "norad_id": 66464,
        "name": "STARLINK-35435",
        "group": "last-30-days",
        "lat": -39.496276317133244,
        "lon": 6.941936143846077,
        "alt_km": 391.78954743796385,
        "timestamp": "2025-12-03T13:52:08.345500+00:00",
        "meta_object_name": "STARLINK-35435",
        "meta_object_id": "2025-262J",
        "meta_epoch": "2025-12-03T08:00:01.999872",
        "meta_mean_motion": 15.60450478,
        "meta_eccentricity": 0.00016541,
        "meta_inclination": 42.9991,
        "meta_ra_of_asc_node": 126.1976,
        "meta_arg_of_pericenter": 269.781,
        "meta_mean_anomaly": 44.3263,
        "meta_ephemeris_type": 0,
        "meta_classification_type": "U",
        "meta_norad_cat_id": 66464,
        "meta_element_set_no": 999,
        "meta_rev_at_epoch": 412,
        "meta_bstar": -0.027837632,
        "meta_mean_motion_dot": -0.02057428,
        "meta_mean_motion_ddot": 0,
        "tle_line1": "1 66464U 25262J   25337.33335648 -.02057428  00000+0 -27838-1 0  9996",
        "tle_line2": "2 66464  42.9991 126.1976 0001654 269.7810  44.3263 15.60450478  4122"
      },
      "geometry": {
        "type": "Point",
        "coordinates": [
          6.941936143846077,
          -39.496276317133244
        ]
      }
    }
  ]
}